start=new Date('2021-09-02T00:00:00.000Z').valueOf();
sats=[{"MEAN_MOTION_DDOT":"0.0000000000000","OBJECT_NAME":"STARLINK-2702","CENTER_NAME":"EARTH","SITE":"AFETR","REV_AT_EPOCH":"358","ELEMENT_SET_NO":"999","MEAN_MOTION":"15.06382398","TLE_LINE2":"2 48441  53.0538  27.7222 0001286 103.0312  11.6463 15.06382398  3588","ARG_OF_PERICENTER":"103.0312","CLASSIFICATION_TYPE":"U","INCLINATION":"53.0538","TIME_SYSTEM":"UTC","TLE_LINE1":"1 48441U 21040P   21244.91668981  .00020223  00000-0  13733-2 0  9997","RCS_SIZE":"LARGE","SEMIMAJOR_AXIS":"6925.403","APOAPSIS":"548.158","PERIOD":"95.593","OBJECT_TYPE":"PAYLOAD","ECCENTRICITY":"0.00012860","EPOCH":"2021-09-01T22:00:01.999584","FILE":"3107096","REF_FRAME":"TEME","MEAN_MOTION_DOT":"0.00020223","LAUNCH_DATE":"2021-05-09","GP_ID":"183928661","BSTAR":"0.00137330000000","MEAN_ELEMENT_THEORY":"SGP4","COUNTRY_CODE":"US","NORAD_CAT_ID":"48441","OBJECT_ID":"2021-040P","DECAY_DATE":null,"EPHEMERIS_TYPE":"0","MEAN_ANOMALY":"11.6463","RA_OF_ASC_NODE":"27.7222","PERIAPSIS":"546.377"},{"LAUNCH_DATE":"2021-05-09","MEAN_MOTION_DOT":"0.00020821","FILE":"3107096","REF_FRAME":"TEME","MEAN_ELEMENT_THEORY":"SGP4","COUNTRY_CODE":"US","BSTAR":"0.00141260000000","GP_ID":"183928754","DECAY_DATE":null,"EPHEMERIS_TYPE":"0","NORAD_CAT_ID":"48442","OBJECT_ID":"2021-040Q","PERIAPSIS":"546.402","RA_OF_ASC_NODE":"27.7245","MEAN_ANOMALY":"45.5526","MEAN_MOTION":"15.06398197","SITE":"AFETR","CENTER_NAME":"EARTH","ELEMENT_SET_NO":"999","REV_AT_EPOCH":"358","MEAN_MOTION_DDOT":"0.0000000000000","OBJECT_NAME":"STARLINK-2644","RCS_SIZE":"LARGE","INCLINATION":"53.0547","CLASSIFICATION_TYPE":"U","TIME_SYSTEM":"UTC","TLE_LINE1":"1 48442U 21040Q   21244.91668981  .00020821  00000-0  14126-2 0  9999","TLE_LINE2":"2 48442  53.0547  27.7245 0001180  89.1550  45.5526 15.06398197  3585","ARG_OF_PERICENTER":"89.1550","APOAPSIS":"548.036","SEMIMAJOR_AXIS":"6925.354","ECCENTRICITY":"0.00011800","EPOCH":"2021-09-01T22:00:01.999584","PERIOD":"95.592","OBJECT_TYPE":"PAYLOAD"},{"MEAN_ELEMENT_THEORY":"SGP4","COUNTRY_CODE":"US","BSTAR":"0.00140520000000","GP_ID":"183928571","LAUNCH_DATE":"2021-05-09","MEAN_MOTION_DOT":"0.00020699","FILE":"3107096","REF_FRAME":"TEME","PERIAPSIS":"546.376","RA_OF_ASC_NODE":"27.7227","MEAN_ANOMALY":"59.5630","DECAY_DATE":null,"EPHEMERIS_TYPE":"0","NORAD_CAT_ID":"48443","OBJECT_ID":"2021-040R","RCS_SIZE":"LARGE","CLASSIFICATION_TYPE":"U","INCLINATION":"53.0541","TLE_LINE1":"1 48443U 21040R   21244.91668981  .00020699  00000-0  14052-2 0  9991","TIME_SYSTEM":"UTC","TLE_LINE2":"2 48443  53.0541  27.7227 0001298  95.0073  59.5630 15.06379914  3583","ARG_OF_PERICENTER":"95.0073","MEAN_MOTION":"15.06379914","SITE":"AFETR","CENTER_NAME":"EARTH","ELEMENT_SET_NO":"999","REV_AT_EPOCH":"358","MEAN_MOTION_DDOT":"0.0000000000000","OBJECT_NAME":"STARLINK-2663","ECCENTRICITY":"0.00012980","EPOCH":"2021-09-01T22:00:01.999584","PERIOD":"95.593","OBJECT_TYPE":"PAYLOAD","APOAPSIS":"548.174","SEMIMAJOR_AXIS":"6925.410"},{"EPHEMERIS_TYPE":"0","DECAY_DATE":null,"OBJECT_ID":"2021-040S","NORAD_CAT_ID":"48444","PERIAPSIS":"546.437","RA_OF_ASC_NODE":"27.7235","MEAN_ANOMALY":"86.9358","LAUNCH_DATE":"2021-05-09","MEAN_MOTION_DOT":"0.00020424","REF_FRAME":"TEME","FILE":"3107096","COUNTRY_CODE":"US","MEAN_ELEMENT_THEORY":"SGP4","BSTAR":"0.00138610000000","GP_ID":"183928847","APOAPSIS":"548.002","SEMIMAJOR_AXIS":"6925.354","EPOCH":"2021-09-01T22:00:01.999584","ECCENTRICITY":"0.00011300","OBJECT_TYPE":"PAYLOAD","PERIOD":"95.592","MEAN_MOTION":"15.06398110","REV_AT_EPOCH":"358","ELEMENT_SET_NO":"999","SITE":"AFETR","CENTER_NAME":"EARTH","OBJECT_NAME":"STARLINK-2645","MEAN_MOTION_DDOT":"0.0000000000000","RCS_SIZE":"LARGE","TLE_LINE1":"1 48444U 21040S   21244.91668981  .00020424  00000-0  13861-2 0  9995","TIME_SYSTEM":"UTC","INCLINATION":"53.0553","CLASSIFICATION_TYPE":"U","ARG_OF_PERICENTER":"87.7485","TLE_LINE2":"2 48444  53.0553  27.7235 0001130  87.7485  86.9358 15.06398110  3586"},{"BSTAR":"0.00136340000000","GP_ID":"183928345","COUNTRY_CODE":"US","MEAN_ELEMENT_THEORY":"SGP4","MEAN_MOTION_DOT":"0.00020088","REF_FRAME":"TEME","FILE":"3107096","LAUNCH_DATE":"2021-05-09","RA_OF_ASC_NODE":"27.7238","MEAN_ANOMALY":"98.0782","PERIAPSIS":"546.417","OBJECT_ID":"2021-040T","NORAD_CAT_ID":"48445","EPHEMERIS_TYPE":"0","DECAY_DATE":null,"TIME_SYSTEM":"UTC","TLE_LINE1":"1 48445U 21040T   21244.91668981  .00020088  00000-0  13634-2 0  9990","INCLINATION":"53.0541","CLASSIFICATION_TYPE":"U","ARG_OF_PERICENTER":"96.4942","TLE_LINE2":"2 48445  53.0541  27.7238 0001124  96.4942  98.0782 15.06406032  3583","RCS_SIZE":"LARGE","ELEMENT_SET_NO":"999","REV_AT_EPOCH":"358","CENTER_NAME":"EARTH","SITE":"AFETR","OBJECT_NAME":"STARLINK-2634","MEAN_MOTION_DDOT":"0.0000000000000","MEAN_MOTION":"15.06406032","OBJECT_TYPE":"PAYLOAD","PERIOD":"95.592","EPOCH":"2021-09-01T22:00:01.999584","ECCENTRICITY":"0.00011240","SEMIMAJOR_AXIS":"6925.330","APOAPSIS":"547.973"},{"MEAN_MOTION":"15.06380285","CENTER_NAME":"EARTH","SITE":"AFETR","REV_AT_EPOCH":"356","ELEMENT_SET_NO":"999","MEAN_MOTION_DDOT":"0.0000000000000","OBJECT_NAME":"STARLINK-2247","RCS_SIZE":"LARGE","CLASSIFICATION_TYPE":"U","INCLINATION":"53.0551","TIME_SYSTEM":"UTC","TLE_LINE1":"1 48446U 21040U   21244.91668981  .00019466  00000-0  13228-2 0  9998","TLE_LINE2":"2 48446  53.0551  27.7239 0001336  88.4006 126.1599 15.06380285  3561","ARG_OF_PERICENTER":"88.4006","APOAPSIS":"548.199","SEMIMAJOR_AXIS":"6925.409","ECCENTRICITY":"0.00013360","EPOCH":"2021-09-01T22:00:01.999584","OBJECT_TYPE":"PAYLOAD","PERIOD":"95.593","LAUNCH_DATE":"2021-05-09","MEAN_MOTION_DOT":"0.00019466","FILE":"3107096","REF_FRAME":"TEME","MEAN_ELEMENT_THEORY":"SGP4","COUNTRY_CODE":"US","BSTAR":"0.00132280000000","GP_ID":"183928438","DECAY_DATE":null,"EPHEMERIS_TYPE":"0","NORAD_CAT_ID":"48446","OBJECT_ID":"2021-040U","PERIAPSIS":"546.349","RA_OF_ASC_NODE":"27.7239","MEAN_ANOMALY":"126.1599"},{"APOAPSIS":"548.061","SEMIMAJOR_AXIS":"6925.340","ECCENTRICITY":"0.00012370","EPOCH":"2021-09-01T22:00:01.999584","PERIOD":"95.592","OBJECT_TYPE":"PAYLOAD","MEAN_MOTION":"15.06402914","CENTER_NAME":"EARTH","SITE":"AFETR","ELEMENT_SET_NO":"999","REV_AT_EPOCH":"358","MEAN_MOTION_DDOT":"0.0000000000000","OBJECT_NAME":"STARLINK-2269","RCS_SIZE":"LARGE","CLASSIFICATION_TYPE":"U","INCLINATION":"53.0532","TLE_LINE1":"1 48447U 21040V   21244.91668981  .00018537  00000-0  12600-2 0  9990","TIME_SYSTEM":"UTC","TLE_LINE2":"2 48447  53.0532  27.7228 0001237  96.6723 137.9482 15.06402914  3583","ARG_OF_PERICENTER":"96.6723","DECAY_DATE":null,"EPHEMERIS_TYPE":"0","NORAD_CAT_ID":"48447","OBJECT_ID":"2021-040V","PERIAPSIS":"546.348","RA_OF_ASC_NODE":"27.7228","MEAN_ANOMALY":"137.9482","LAUNCH_DATE":"2021-05-09","MEAN_MOTION_DOT":"0.00018537","FILE":"3107096","REF_FRAME":"TEME","MEAN_ELEMENT_THEORY":"SGP4","COUNTRY_CODE":"US","BSTAR":"0.00126000000000","GP_ID":"183928255"},{"APOAPSIS":"548.351","SEMIMAJOR_AXIS":"6925.421","EPOCH":"2021-09-01T22:00:01.999584","ECCENTRICITY":"0.00015370","PERIOD":"95.594","OBJECT_TYPE":"PAYLOAD","MEAN_MOTION":"15.06376206","OBJECT_NAME":"STARLINK-2632","MEAN_MOTION_DDOT":"0.0000000000000","REV_AT_EPOCH":"358","ELEMENT_SET_NO":"999","CENTER_NAME":"EARTH","SITE":"AFETR","RCS_SIZE":"LARGE","ARG_OF_PERICENTER":"120.9318","TLE_LINE2":"2 48448  53.0541  27.7238 0001537 120.9318 338.9242 15.06376206  3580","TIME_SYSTEM":"UTC","TLE_LINE1":"1 48448U 21040W   21244.91668981  .00019748  00000-0  13418-2 0  9994","INCLINATION":"53.0541","CLASSIFICATION_TYPE":"U","EPHEMERIS_TYPE":"0","DECAY_DATE":null,"OBJECT_ID":"2021-040W","NORAD_CAT_ID":"48448","PERIAPSIS":"546.222","MEAN_ANOMALY":"338.9242","RA_OF_ASC_NODE":"27.7238","LAUNCH_DATE":"2021-05-09","REF_FRAME":"TEME","FILE":"3107096","MEAN_MOTION_DOT":"0.00019748","COUNTRY_CODE":"US","MEAN_ELEMENT_THEORY":"SGP4","GP_ID":"183928531","BSTAR":"0.00134180000000"},{"GP_ID":"183928662","BSTAR":"0.00122060000000","MEAN_ELEMENT_THEORY":"SGP4","COUNTRY_CODE":"US","FILE":"3107096","REF_FRAME":"TEME","MEAN_MOTION_DOT":"0.00017938","LAUNCH_DATE":"2021-05-09","MEAN_ANOMALY":"165.4164","RA_OF_ASC_NODE":"27.7231","PERIAPSIS":"546.328","NORAD_CAT_ID":"48449","OBJECT_ID":"2021-040X","DECAY_DATE":null,"EPHEMERIS_TYPE":"0","TLE_LINE2":"2 48449  53.0534  27.7231 0001354  89.1640 165.4164 15.06383008  3581","ARG_OF_PERICENTER":"89.1640","INCLINATION":"53.0534","CLASSIFICATION_TYPE":"U","TIME_SYSTEM":"UTC","TLE_LINE1":"1 48449U 21040X   21244.91668981  .00017938  00000-0  12206-2 0  9998","RCS_SIZE":"LARGE","MEAN_MOTION_DDOT":"0.0000000000000","OBJECT_NAME":"STARLINK-2655","CENTER_NAME":"EARTH","SITE":"AFETR","ELEMENT_SET_NO":"999","REV_AT_EPOCH":"358","MEAN_MOTION":"15.06383008","PERIOD":"95.593","OBJECT_TYPE":"PAYLOAD","ECCENTRICITY":"0.00013540","EPOCH":"2021-09-01T22:00:01.999584","SEMIMAJOR_AXIS":"6925.401","APOAPSIS":"548.203"},{"OBJECT_ID":"2021-040Y","NORAD_CAT_ID":"48450","EPHEMERIS_TYPE":"0","DECAY_DATE":null,"MEAN_ANOMALY":"183.8987","RA_OF_ASC_NODE":"27.7225","PERIAPSIS":"546.422","REF_FRAME":"TEME","FILE":"3107096","MEAN_MOTION_DOT":"0.00016787","LAUNCH_DATE":"2021-05-09","GP_ID":"183928755","BSTAR":"0.00114400000000","COUNTRY_CODE":"US","MEAN_ELEMENT_THEORY":"SGP4","SEMIMAJOR_AXIS":"6925.431","APOAPSIS":"548.171","OBJECT_TYPE":"PAYLOAD","PERIOD":"95.594","EPOCH":"2021-09-01T22:00:01.999584","ECCENTRICITY":"0.00012630","OBJECT_NAME":"STARLINK-2660","MEAN_MOTION_DDOT":"0.0000000000000","REV_AT_EPOCH":"358","ELEMENT_SET_NO":"999","SITE":"AFETR","CENTER_NAME":"EARTH","MEAN_MOTION":"15.06373015","ARG_OF_PERICENTER":"90.7824","TLE_LINE2":"2 48450  53.0527  27.7225 0001263  90.7824 183.8987 15.06373015  3583","TIME_SYSTEM":"UTC","TLE_LINE1":"1 48450U 21040Y   21244.91668981  .00016787  00000-0  11440-2 0  9990","CLASSIFICATION_TYPE":"U","INCLINATION":"53.0527","RCS_SIZE":"LARGE"}];
